sat43243
1 43243U 18028A   20046.90554829  .00043787  25276-5  10366-3 0  9994
2 43243  96.4686  95.0823 0002362 109.3893 355.4870 15.96950688109762
